     2.10           NAVIGATION DATA                         RINEX VERSION / TYPE
SPIDER V4,0,0,3554                      2015 03 16 00:34    PGM / RUN BY / DATE 
   1.6764D-08  0.0000D+00 -1.1921D-07  5.9605D-08           ION ALPHA           
   1.2288D+05 -3.2768D+04 -1.9661D+05 -6.5536D+04           ION BETA            
    2.793967723846D-09 8.881784197001D-16   233472     1833 DELTA-UTC: A0,A1,T,W
    16                                                      LEAP SECONDS        
                                                            END OF HEADER       
30 15 02 22 12 00  0.0-8.363742381334D-05 1.705302565824D-12 0.000000000000D+00
    8.700000000000D+01-7.200000000000D+01 4.740911663248D-09-2.337666822898D+00
   -3.738328814507D-06 1.022927463055D-03 6.329268217087D-06 5.153767051697D+03
    4.320000000000D+04 4.284083843231D-08 2.914347663901D+00 5.774199962616D-08
    9.570794661100D-01 2.562812500000D+02 2.927097901971D+00-8.363920223076D-09
   -4.243033979723D-10 1.000000000000D+00 1.833000000000D+03 0.000000000000D+00
    2.000000000000D+00 0.000000000000D+00 3.259629011154D-09 8.700000000000D+01
    4.320000000000D+04 0.000000000000D+00
 5 15 02 22 12 00  0.0-2.757185138762D-04 5.002220859751D-12 0.000000000000D+00
    6.100000000000D+01 1.568750000000D+01 4.737340297822D-09 1.062468855498D+00
    1.119449734688D-06 4.029734875076D-03 1.261942088604D-05 5.153782154083D+03
    4.320000000000D+04-3.352761268616D-08 7.378645946792D-01 4.842877388000D-08
    9.468410159574D-01 1.279062500000D+02 4.188926416113D-01-8.098552051194D-09
   -9.857553662229D-11 1.000000000000D+00 1.833000000000D+03 0.000000000000D+00
    2.000000000000D+00 0.000000000000D+00-1.071020960808D-08 6.100000000000D+01
    4.320000000000D+04 0.000000000000D+00
13 15 02 22 12 00  0.0-9.054364636540D-05-3.410605131648D-12 0.000000000000D+00
    8.300000000000D+01 6.159375000000D+01 4.572690670557D-09-1.693827686059D+00
    3.203749656677D-06 5.353769869544D-03 4.883855581284D-06 5.153682422638D+03
    4.320000000000D+04-1.527369022369D-07 1.901671334759D+00 6.705522537231D-08
    9.745762047936D-01 2.904687500000D+02 2.063668952187D+00-8.298203013624D-09
    1.250052006352D-10 1.000000000000D+00 1.833000000000D+03 0.000000000000D+00
    2.000000000000D+00 0.000000000000D+00-1.164153218269D-08 8.300000000000D+01
    4.320000000000D+04 0.000000000000D+00
